KUIPER-00079            
1 64826U 25151L   25226.58335648 -.00588591  00000+0 -21109-1 0  9990
2 64826  51.8800 146.2891 0004519 245.3486 254.7821 15.30323473  4039
KUIPER-00080            
1 64827U 25151M   25226.58335648 -.00759960  00000+0 -26674-1 0  9993
2 64827  51.8804 146.3483 0002533 262.0104 228.2135 15.31237009  4640
KUIPER-00082            
1 64828U 25151N   25226.48494672  .00032298  00000+0  91038-3 0  9990
2 64828  51.8779 146.6919 0005556 245.0551 114.9858 15.36123527  4483
KUIPER-00083            
1 64829U 25151P   25226.49232316  .00019286  00000+0  55592-3 0  9994
2 64829  51.8786 146.7364 0004996 246.5544 113.4917 15.35727235  5679
KUIPER-00084            
1 64830U 25151Q   25226.58335648 -.01418262  00000+0 -72445-1 0  9992
2 64830  51.8865 147.2841 0006929 241.3037 116.8349 15.19143907  4229
KUIPER-00085            
1 64831U 25151R   25226.48259518  .00024703  00000+0  69749-3 0  9998
2 64831  51.8784 146.6781 0005605 238.5813 121.4625 15.36214747  4483
KUIPER-00086            
1 64832U 25151S   25226.49508819  .00025301  00000+0  72907-3 0  9996
2 64832  51.8783 146.7563 0005443 261.4355  98.6014 15.35563693  4481
KUIPER-00087            
1 64833U 25151T   25226.48693603  .00031446  00000+0  89097-3 0  9997
2 64833  51.8789 146.7078 0005142 237.9809 122.0678 15.35977288  4484
